JCAT , SatcatLaunch_Tag Piece     , Type     , Name                        , PLName                      , LDate      , Parent      , SDate              , Primary, DDate              , Status Dest   , Owner       , State , Manufacturer, Bus              , Motor       , Mass     , DryMass   , TotMass  , Length, Diamete, Span   , Shape                    , ODate      , Perigee, Apogee, Inc   , OpOrbitOQU AltNames, STATUS, OBJECT_NAME             , OBJECT_ID , EPOCH                     , MEAN_MOTION, ECCENTRICITY, INCLINATION, RA_OF_ASC_NODE, ARG_OF_PERICENTER, MEAN_ANOMALY, EPHEMERIS_TYPE, CLASSIFICATION_TYPE, NORAD_CAT_ID, ELEMENT_SET_NO, REV_AT_EPOCH, BSTAR         , MEAN_MOTION_DOT, MEAN_MOTION_DDOT, LAST_UPDATED       , DATA_SOURCE               , TLE_LINE1                                                            , TLE_LINE2                                                            , N2YO_SAT_NAME              , TLE_FETCHED
33492, 33492 2009-002   2009-002A , P        , Ibuki                       , GOSAT                       , 2009 Jan 23, S33500      , 2009 Jan 23 0410   , Earth  , -                  , O      -      , JAXA        , J     , MELCO       , GOSAT            , AOCS        , 1750     , 1750      , 1750     , 3.7   , 1.8    , 13.7   , Box + 2 Pan              , 2009 Jan 25, 668    , 672   , 98.03 , LEO/S  -           , ACTIVE, GOSAT (IBUKI)           , 2009-002A , 2025-10-03T13:40:23.824416, 14.67548441, 0.00015328  ,     98.072 ,        26.1683,          102.7631,     257.3745,            0.0, U                  ,      33492.0,          999.0,      89382.0, 0.00037830245 , 2.098e-05      , 0.0             , 2025-10-04 23:19:22, planet4589.org + Celestrak, 1 33492U 09002A   25276.56972019  .00002098  00000-0  37830-3 0  9996, 2 33492  98.0720  26.1683 0001533 102.7631 257.3745 14.67548441893824, GOSAT (IBUKI)              , YES
33498, 33498 2009-002   2009-002G , P        , Kukai                       , STARS-1 Mother              , 2009 Jan 23, S33500      , 2009 Jan 23 0435   , Earth  , -                  , O      -      , KAGA        , J     , KAGA        , STARS-1          , -           , 4        , 4         , 7        , 0.253 , 0.160  , 1.0  ? , 2 Box + Tether           , 2009 Jan 25, 647    , 666   , 98.03 , LEO/S  -   STARS-1 , ACTIVE, STARS (KUKAI)           , 2009-002G , 2025-10-03T09:19:51.542400, 14.92894122, 0.00072729  ,     98.1267,       209.1605,          305.9441,      54.1102,            0.0, U                  ,      33498.0,          999.0,      90012.0, 0.0010523842  , 0.00010866     , 0.0             , 2025-10-04 23:19:22, planet4589.org + Celestrak, 1 33498U 09002G   25276.38879100  .00010866  00000-0  10524-2 0  9991, 2 33498  98.1267 209.1605 0007273 305.9441  54.1102 14.92894122900127, STARS (KUKAI)              , YES
33499, 33499 2009-002   2009-002H , P        , Kiseki                      , KKS-1                       , 2009 Jan 23, S33500      , 2009 Jan 23 0435   , Earth  , -                  , O      -      , KOUKO       , J     , KOUKO       , KKS-1            , -           , 3        , 3         , 3        , 0.2   , 0.2    , 0.2    , Box                      , 2009 Jan 25, 650    , 666   , 98.03 , LEO/S  -   Kouko-Ko, ACTIVE, KKS-1 (KISEKI)          , 2009-002H , 2025-10-03T14:27:33.975648, 14.82032133, 0.00092863  ,     98.1121,       190.2185,           48.7922,     311.409 ,            0.0, U                  ,      33499.0,          999.0,      89817.0, 0.00051601984 , 4.046e-05      , 0.0             , 2025-10-04 23:19:22, planet4589.org + Celestrak, 1 33499U 09002H   25277.48018053  .00003278  00000-0  41938-3 0  9999, 2 33499  98.1123 191.1080 0009227  46.3420 313.8556 14.82037479898307, KKS-1 (KISEKI)             , YES
33595, 33595 2009-007   2009-007A , P        , Ekspress AM-44              , Ekspress AM-44              , 2009 Feb 11, S33596      , 2009 Feb 11 0915   , Earth  , -                  , O      -      , KS          , RU    , RESH        , Ekspress-2000    , AOCS        , 2532     , 1500    ? , 2532     , 6.0   , 2.0    , 27.0   , Cyl + 2 Pan              , 2009 Feb 11, 35657  , 37521 , 0.22  , GEO/D  -           , ACTIVE, EXPRESS-AM44            , 2009-007A , 2025-10-03T15:18:36.355392,  1.00271989, 0.00042332  ,      2.7971,        81.5452,          109.5937,      40.1331,            0.0, U                  ,      33595.0,          999.0,       4971.0, 0.0           , -8.6e-07       , 0.0             , 2025-10-04 23:19:22, planet4589.org + Celestrak, 1 33595U 09007A   25276.63792078 -.00000086  00000-0  00000-0 0  9990, 2 33595   2.7971  81.5452 0004233 109.5937  40.1331  1.00271989 49714, EXPRESS AM-44              , YES
33749, 33749 2009-008   2009-008A , P      O , NSS 9                       , NSS 9                       , 2009 Feb 12, S33754      , 2009 Feb 12 2241   , Earth  , -                  , O      -      , SESSL/SESNS , UK    , OSCD        , OSC Star 2.4     , BT-4        , 2290     , 1050      , 2290     , 4.1   , 2.3    , 17.5   , Box + 2 Pan              , 2009 Feb 20, 35703  , 35779 , 0.05  , GEO/D  -           , ACTIVE, NSS-9                   , 2009-008A , 2025-10-03T14:34:38.667072,  1.00272022, 0.00021557  ,      0.5919,        84.6436,           92.7496,     236.9144,            0.0, U                  ,      33749.0,          999.0,       6094.0, 0.0           , 7.3e-07        , 0.0             , 2025-10-04 23:19:22, planet4589.org + Celestrak, 1 33749U 09008A   25277.46135377  .00000073  00000-0  00000+0 0  9991, 2 33749   0.5942  84.6287 0002151  95.4803 182.4676  1.00272156 60959, NSS 9                      , YES
34111, 34111 2009-009   2009-009A , P        , Telstar 11N                 , Telstar 11N                 , 2009 Feb 26, S34112      , 2009 Feb 27 0025   , Earth  , -                  , O      -      , TSKY        , CA    , LOR         , FS-1300          , R-4D-11-164 , 4010     , 2000    ? , 4010     , 5.6  ?, 2.8  ? , 31.0  ?, Box + 2 Pan              , 2009 Jun 29, 35777  , 35798 , 0.01  , GEO/S  -           , ACTIVE, TELSTAR 11N             , 2009-009A , 2025-10-03T10:02:37.874688,  1.00267779, 0.00025519  ,      0.0238,       190.7046,          345.3391,     309.4371,            0.0, U                  ,      34111.0,          999.0,       4367.0, 0.0           , 0.0            , 0.0             , 2025-10-04 23:19:22, planet4589.org + Celestrak, 1 34111U 09009A   25277.41757735 -.00000250  00000-0  00000+0 0  9997, 2 34111   0.0028 166.3850 0002541  11.2427 308.5379  1.00270121 43680, TELSTAR 11N                , YES
35873, 35873 2009-050   2009-050A , P        , Nimiq 5                     , Nimiq 5                     , 2009 Sep 17, S35874      , 2009 Sep 18 0434   , Earth  , -                  , O      -      , TCANL       , CA    , LOR         , SSL-1300         , R-4D        , 4745     , 2000    ? , 4745     , 5.6  ?, 2.6  ? , 26.0   , Box + 2 Pan              , 2009 Nov 27, 35780  , 35793 , 0.02  , GEO/S  -           , ACTIVE, NIMIQ 5                 , 2009-050A , 2025-10-03T13:18:11.507904,  1.00272573, 0.00029222  ,      0.0415,        87.9465,          112.585 ,     298.843 ,            0.0, U                  ,      35873.0,          999.0,       5877.0, 0.0           , -2.57e-06      , 0.0             , 2025-10-04 23:19:22, planet4589.org + Celestrak, 1 35873U 09050A   25277.47132007 -.00000256  00000-0  00000+0 0  9990, 2 35873   0.0443  86.4456 0002968 116.5469 267.4155  1.00272132 58785, NIMIQ 5                    , YES
35931, 35931 2009-051   2009-051A , P        , Oceansat-2                  , IRS Oceansat-2              , 2009 Sep 23, S35936      , 2009 Sep 23 0638   , Earth  , -                  , O      -      , ISRO        , IN    , ISAC/HAL    , IRS              , -           , 960      , 860       , 960      , 2.8  ?, 2.0    , 11.7  ?, Box + 2 Pan              , 2009 Sep 23, 715    , 724   , 98.34 , LEO/S  -           , ACTIVE, OCEANSAT-2              , 2009-051A , 2025-10-03T13:27:19.296000, 13.99609164, 0.00159541  ,     98.2245,       284.2668,          238.7949,     121.1654,            0.0, U                  ,      35931.0,          999.0,      84343.0, -4.6066945e-05, -1.05e-06      , 0.0             , 2025-10-04 23:19:22, planet4589.org + Celestrak, 1 35931U 09051A   25277.48999249 -.00000122  00000-0 -58010-4 0  9998, 2 35931  98.2243 285.1023 0015991 235.9390 124.0259 13.99608950843567, OCEANSAT 2                 , YES
35932, 35932 2009-051   2009-051B , P        , SwissCube                   , SwissCube                   , 2009 Sep 23, S35936      , 2009 Sep 23 0638   , Earth  , -                  , O      -      , EPFL        , CH    , EPFL        , Cubesat 1U       , -           , 1        , 1         , 1        , 0.1   , 0.1    , 0.1    , Box                      , 2009 Sep 23, 713    , 723   , 98.34 , LEO/S  -           , ACTIVE, SWISSCUBE               , 2009-051B , 2025-10-03T14:38:58.131456, 14.61650358, 0.00057142  ,     98.4148,       174.9485,          298.8522,      61.2105,            0.0, U                  ,      35932.0,          999.0,      85166.0, 0.00066273833 , 3.249e-05      , 0.0             , 2025-10-04 23:19:22, planet4589.org + Celestrak, 1 35932U 09051B   25276.61039504  .00003249  00000-0  66274-3 0  9993, 2 35932  98.4148 174.9485 0005714 298.8522  61.2105 14.61650358851669, SWISSCUBE                  , YES
